{"fetched_at":"2026-07-23T17:55:11.690Z","source":"https://celestrak.org/NORAD/elements/gp.php?GROUP=qianfan&FORMAT=JSON","constellation":"qianfan","records":[{"OBJECT_NAME":"QIANFAN-145","OBJECT_ID":"2026-108A","EPOCH":"2026-07-22T22:14:55.760928","CLASSIFICATION_TYPE":"U","MEAN_MOTION":13.54967118,"ECCENTRICITY":0.00219793,"INCLINATION":89.0104,"RA_OF_ASC_NODE":18.4715,"ARG_OF_PERICENTER":9.9458,"MEAN_ANOMALY":350.2126,"EPHEMERIS_TYPE":0,"NORAD_CAT_ID":69104,"ELEMENT_SET_NO":999,"REV_AT_EPOCH":926,"BSTAR":-3.1144101,"MEAN_MOTION_DOT":-0.02010379,"MEAN_MOTION_DDOT":0},{"OBJECT_NAME":"QIANFAN-146","OBJECT_ID":"2026-108B","EPOCH":"2026-07-22T21:55:34.802400","CLASSIFICATION_TYPE":"U","MEAN_MOTION":13.74638445,"ECCENTRICITY":0.00238907,"INCLINATION":89.0108,"RA_OF_ASC_NODE":18.3471,"ARG_OF_PERICENTER":357.0187,"MEAN_ANOMALY":3.0831,"EPHEMERIS_TYPE":0,"NORAD_CAT_ID":69105,"ELEMENT_SET_NO":999,"REV_AT_EPOCH":933,"BSTAR":-2.1668735,"MEAN_MOTION_DOT":-0.01928564,"MEAN_MOTION_DDOT":0},{"OBJECT_NAME":"QIANFAN-147","OBJECT_ID":"2026-108C","EPOCH":"2026-07-22T20:51:58.335552","CLASSIFICATION_TYPE":"U","MEAN_MOTION":13.57849462,"ECCENTRICITY":0.00184408,"INCLINATION":89.0113,"RA_OF_ASC_NODE":18.4813,"ARG_OF_PERICENTER":0.7238,"MEAN_ANOMALY":359.394,"EPHEMERIS_TYPE":0,"NORAD_CAT_ID":69106,"ELEMENT_SET_NO":999,"REV_AT_EPOCH":924,"BSTAR":0.000032403438,"MEAN_MOTION_DOT":3.5e-7,"MEAN_MOTION_DDOT":0},{"OBJECT_NAME":"QIANFAN-148","OBJECT_ID":"2026-108D","EPOCH":"2026-07-22T22:15:00.644256","CLASSIFICATION_TYPE":"U","MEAN_MOTION":13.57798333,"ECCENTRICITY":0.00209235,"INCLINATION":89.0105,"RA_OF_ASC_NODE":18.4688,"ARG_OF_PERICENTER":7.1153,"MEAN_ANOMALY":353.0295,"EPHEMERIS_TYPE":0,"NORAD_CAT_ID":69107,"ELEMENT_SET_NO":999,"REV_AT_EPOCH":925,"BSTAR":0.000049765695,"MEAN_MOTION_DOT":4.8e-7,"MEAN_MOTION_DDOT":0},{"OBJECT_NAME":"QIANFAN-149","OBJECT_ID":"2026-108E","EPOCH":"2026-07-22T21:52:57.521568","CLASSIFICATION_TYPE":"U","MEAN_MOTION":13.53370927,"ECCENTRICITY":0.002004,"INCLINATION":89.0107,"RA_OF_ASC_NODE":18.4862,"ARG_OF_PERICENTER":7.7957,"MEAN_ANOMALY":352.3504,"EPHEMERIS_TYPE":0,"NORAD_CAT_ID":69108,"ELEMENT_SET_NO":999,"REV_AT_EPOCH":925,"BSTAR":0.000031225181,"MEAN_MOTION_DOT":3.3e-7,"MEAN_MOTION_DDOT":0},{"OBJECT_NAME":"QIANFAN-150","OBJECT_ID":"2026-108F","EPOCH":"2026-07-22T21:33:17.523936","CLASSIFICATION_TYPE":"U","MEAN_MOTION":13.53730791,"ECCENTRICITY":0.00165875,"INCLINATION":89.0104,"RA_OF_ASC_NODE":18.4504,"ARG_OF_PERICENTER":4.4937,"MEAN_ANOMALY":355.6362,"EPHEMERIS_TYPE":0,"NORAD_CAT_ID":69109,"ELEMENT_SET_NO":999,"REV_AT_EPOCH":926,"BSTAR":-2.7580642,"MEAN_MOTION_DOT":-0.01742586,"MEAN_MOTION_DDOT":0},{"OBJECT_NAME":"QIANFAN-151","OBJECT_ID":"2026-108G","EPOCH":"2026-07-22T21:01:40.484064","CLASSIFICATION_TYPE":"U","MEAN_MOTION":13.5784786,"ECCENTRICITY":0.0020852,"INCLINATION":89.0109,"RA_OF_ASC_NODE":18.4645,"ARG_OF_PERICENTER":5.5757,"MEAN_ANOMALY":354.5626,"EPHEMERIS_TYPE":0,"NORAD_CAT_ID":69110,"ELEMENT_SET_NO":999,"REV_AT_EPOCH":925,"BSTAR":0.000034938372,"MEAN_MOTION_DOT":3.7e-7,"MEAN_MOTION_DDOT":0},{"OBJECT_NAME":"QIANFAN-152","OBJECT_ID":"2026-108H","EPOCH":"2026-07-22T20:26:27.918528","CLASSIFICATION_TYPE":"U","MEAN_MOTION":13.50521529,"ECCENTRICITY":0.00207157,"INCLINATION":89.01,"RA_OF_ASC_NODE":18.4605,"ARG_OF_PERICENTER":7.9018,"MEAN_ANOMALY":352.2455,"EPHEMERIS_TYPE":0,"NORAD_CAT_ID":69111,"ELEMENT_SET_NO":999,"REV_AT_EPOCH":926,"BSTAR":-3.0892012,"MEAN_MOTION_DOT":-0.01849406,"MEAN_MOTION_DDOT":0},{"OBJECT_NAME":"QIANFAN-153","OBJECT_ID":"2026-108J","EPOCH":"2026-07-22T19:58:26.037984","CLASSIFICATION_TYPE":"U","MEAN_MOTION":13.59770563,"ECCENTRICITY":0.00226646,"INCLINATION":89.0099,"RA_OF_ASC_NODE":18.4543,"ARG_OF_PERICENTER":358.0514,"MEAN_ANOMALY":2.055,"EPHEMERIS_TYPE":0,"NORAD_CAT_ID":69112,"ELEMENT_SET_NO":999,"REV_AT_EPOCH":925,"BSTAR":-2.672147,"MEAN_MOTION_DOT":-0.01851749,"MEAN_MOTION_DDOT":0},{"OBJECT_NAME":"QIANFAN-154","OBJECT_ID":"2026-108K","EPOCH":"2026-07-23T05:21:19.128384","CLASSIFICATION_TYPE":"U","MEAN_MOTION":13.49945779,"ECCENTRICITY":0.00189713,"INCLINATION":89.0113,"RA_OF_ASC_NODE":18.4432,"ARG_OF_PERICENTER":2.9373,"MEAN_ANOMALY":357.1886,"EPHEMERIS_TYPE":0,"NORAD_CAT_ID":69113,"ELEMENT_SET_NO":999,"REV_AT_EPOCH":930,"BSTAR":0.000046541094,"MEAN_MOTION_DOT":4.1e-7,"MEAN_MOTION_DDOT":0},{"OBJECT_NAME":"QIANFAN-155","OBJECT_ID":"2026-108L","EPOCH":"2026-07-22T21:48:03.719232","CLASSIFICATION_TYPE":"U","MEAN_MOTION":13.5372617,"ECCENTRICITY":0.00193364,"INCLINATION":89.0109,"RA_OF_ASC_NODE":18.4526,"ARG_OF_PERICENTER":18.4093,"MEAN_ANOMALY":341.7755,"EPHEMERIS_TYPE":0,"NORAD_CAT_ID":69114,"ELEMENT_SET_NO":999,"REV_AT_EPOCH":926,"BSTAR":-2.7530368,"MEAN_MOTION_DOT":-0.01739998,"MEAN_MOTION_DDOT":0},{"OBJECT_NAME":"QIANFAN-156","OBJECT_ID":"2026-108M","EPOCH":"2026-07-22T20:02:00.365280","CLASSIFICATION_TYPE":"U","MEAN_MOTION":13.5488582,"ECCENTRICITY":0.0018365,"INCLINATION":89.0123,"RA_OF_ASC_NODE":18.4481,"ARG_OF_PERICENTER":9.6623,"MEAN_ANOMALY":350.488,"EPHEMERIS_TYPE":0,"NORAD_CAT_ID":69115,"ELEMENT_SET_NO":999,"REV_AT_EPOCH":927,"BSTAR":-2.7274584,"MEAN_MOTION_DOT":-0.0175449,"MEAN_MOTION_DDOT":0},{"OBJECT_NAME":"QIANFAN-157","OBJECT_ID":"2026-108N","EPOCH":"2026-07-22T20:34:46.467264","CLASSIFICATION_TYPE":"U","MEAN_MOTION":13.63228055,"ECCENTRICITY":0.00210541,"INCLINATION":89.0095,"RA_OF_ASC_NODE":18.3882,"ARG_OF_PERICENTER":3.462,"MEAN_ANOMALY":356.668,"EPHEMERIS_TYPE":0,"NORAD_CAT_ID":69116,"ELEMENT_SET_NO":999,"REV_AT_EPOCH":930,"BSTAR":-2.5512658,"MEAN_MOTION_DOT":-0.01867181,"MEAN_MOTION_DDOT":0},{"OBJECT_NAME":"QIANFAN-158","OBJECT_ID":"2026-108P","EPOCH":"2026-07-22T20:04:43.999968","CLASSIFICATION_TYPE":"U","MEAN_MOTION":13.55530634,"ECCENTRICITY":0.00178603,"INCLINATION":89.0104,"RA_OF_ASC_NODE":18.422,"ARG_OF_PERICENTER":13.1747,"MEAN_ANOMALY":346.987,"EPHEMERIS_TYPE":0,"NORAD_CAT_ID":69117,"ELEMENT_SET_NO":999,"REV_AT_EPOCH":928,"BSTAR":-2.6678235,"MEAN_MOTION_DOT":-0.01734892,"MEAN_MOTION_DDOT":0},{"OBJECT_NAME":"QIANFAN-159","OBJECT_ID":"2026-108Q","EPOCH":"2026-07-23T04:58:17.864544","CLASSIFICATION_TYPE":"U","MEAN_MOTION":13.5781521,"ECCENTRICITY":0.00203756,"INCLINATION":89.0098,"RA_OF_ASC_NODE":18.3984,"ARG_OF_PERICENTER":5.0646,"MEAN_ANOMALY":355.0712,"EPHEMERIS_TYPE":0,"NORAD_CAT_ID":69118,"ELEMENT_SET_NO":999,"REV_AT_EPOCH":932,"BSTAR":0.000031338452,"MEAN_MOTION_DOT":3.5e-7,"MEAN_MOTION_DDOT":0},{"OBJECT_NAME":"QIANFAN-160","OBJECT_ID":"2026-108R","EPOCH":"2026-07-23T04:32:26.126592","CLASSIFICATION_TYPE":"U","MEAN_MOTION":13.52400604,"ECCENTRICITY":0.00217223,"INCLINATION":89.0111,"RA_OF_ASC_NODE":18.4206,"ARG_OF_PERICENTER":5.3249,"MEAN_ANOMALY":354.813,"EPHEMERIS_TYPE":0,"NORAD_CAT_ID":69119,"ELEMENT_SET_NO":999,"REV_AT_EPOCH":931,"BSTAR":0.000047695539,"MEAN_MOTION_DOT":4.3e-7,"MEAN_MOTION_DDOT":0}]}
