QIANFAN-145             
1 69104U 26108A   26203.92703427 -.02010379  00000+0 -31144+1 0  9990
2 69104  89.0104  18.4715 0021979   9.9458 350.2126 13.54967118  9264
QIANFAN-146             
1 69105U 26108B   26203.91359725 -.01928564  00000+0 -21669+1 0  9992
2 69105  89.0108  18.3471 0023890 357.0187   3.0831 13.74638445  9331
QIANFAN-147             
1 69106U 26108C   26203.86942518  .00000035  00000+0  32403-4 0  9998
2 69106  89.0113  18.4813 0018440   0.7238 359.3940 13.57849462  9245
QIANFAN-148             
1 69107U 26108D   26203.92709079  .00000048  00000+0  49766-4 0  9993
2 69107  89.0105  18.4688 0020923   7.1153 353.0295 13.57798333  9258
QIANFAN-149             
1 69108U 26108E   26203.91177687  .00000033  00000+0  31225-4 0  9992
2 69108  89.0107  18.4862 0020040   7.7957 352.3504 13.53370927  9259
QIANFAN-150             
1 69109U 26108F   26203.89811949 -.01742586  00000+0 -27581+1 0  9991
2 69109  89.0104  18.4504 0016587   4.4937 355.6362 13.53730791  9261
QIANFAN-151             
1 69110U 26108G   26203.87616301  .00000037  00000+0  34938-4 0  9999
2 69110  89.0109  18.4645 0020852   5.5757 354.5626 13.57847860  9256
QIANFAN-152             
1 69111U 26108H   26203.85171202 -.01849406  00000+0 -30892+1 0  9999
2 69111  89.0100  18.4605 0020715   7.9018 352.2455 13.50521529  9268
QIANFAN-153             
1 69112U 26108J   26203.83224581 -.01851749  00000+0 -26721+1 0  9996
2 69112  89.0099  18.4543 0022664 358.0514   2.0550 13.59770563  9251
QIANFAN-154             
1 69113U 26108K   26204.22313806  .00000041  00000+0  46541-4 0  9994
2 69113  89.0113  18.4432 0018971   2.9373 357.1886 13.49945779  9304
QIANFAN-155             
1 69114U 26108L   26203.90837638 -.01739998  00000+0 -27530+1 0  9999
2 69114  89.0109  18.4526 0019336  18.4093 341.7755 13.53726170  9267
QIANFAN-156             
1 69115U 26108M   26203.83472645 -.01754490  00000+0 -27275+1 0  9995
2 69115  89.0123  18.4481 0018365   9.6623 350.4880 13.54885820  9272
QIANFAN-157             
1 69116U 26108N   26203.85748226 -.01867181  00000+0 -25513+1 0  9994
2 69116  89.0095  18.3882 0021054   3.4620 356.6680 13.63228055  9304
QIANFAN-158             
1 69117U 26108P   26203.83662037 -.01734892  00000+0 -26678+1 0  9993
2 69117  89.0104  18.4220 0017860  13.1747 346.9870 13.55530634  9281
QIANFAN-159             
1 69118U 26108Q   26204.20715121  .00000035  00000+0  31338-4 0  9994
2 69118  89.0098  18.3984 0020375   5.0646 355.0712 13.57815210  9322
QIANFAN-160             
1 69119U 26108R   26204.18919128  .00000043  00000+0  47696-4 0  9998
2 69119  89.0111  18.4206 0021722   5.3249 354.8130 13.52400604  9318
